         0.0000000        6.4727869        0.0137366       52.6683000       23.9378000      276.7208000       81.7737000
      2700.0000000        6.4727869        0.0137366       52.6683000       22.7538753      277.5388868      131.0056618
      5400.0000000        6.4727869        0.0137366       52.6683000       21.5699505      278.3569737      180.2376235
      8100.0000000        6.4727869        0.0137366       52.6683000       20.3860258      279.1750605      229.4695853
     10800.0000000        6.4727869        0.0137366       52.6683000       19.2021010      279.9931473      278.7015470
     13500.0000000        6.4727869        0.0137366       52.6683000       18.0181763      280.8112342      327.9335088
     16200.0000000        6.4727869        0.0137366       52.6683000       16.8342516      281.6293210       17.1654706
     18900.0000000        6.4727869        0.0137366       52.6683000       15.6503268      282.4474079       66.3974323
     21600.0000000        6.4727869        0.0137366       52.6683000       14.4664021      283.2654947      115.6293941
     24300.0000000        6.4727869        0.0137366       52.6683000       13.2824773      284.0835815      164.8613559
     27000.0000000        6.4727869        0.0137366       52.6683000       12.0985526      284.9016684      214.0933176
     29700.0000000        6.4727869        0.0137366       52.6683000       10.9146279      285.7197552      263.3252794
     32400.0000000        6.4727869        0.0137366       52.6683000        9.7307031      286.5378420      312.5572411
     35100.0000000        6.4727869        0.0137366       52.6683000        8.5467784      287.3559289        1.7892029
     37800.0000000        6.4727869        0.0137366       52.6683000        7.3628536      288.1740157       51.0211647
     40500.0000000        6.4727869        0.0137366       52.6683000        6.1789289      288.9921026      100.2531264
     43200.0000000        6.4727869        0.0137366       52.6683000        4.9950042      289.8101894      149.4850882


 1 90034U RELEAS14 00051.38558242 +.00711372  97635-5  13083-2 0 0021                                                                                                                                                                                                                                                                                                                                                                                                                                                           
 2 90034  62.8218  97.3466 0233042 119.4400 242.9881 17.6709972501011                                                                                                                                                                                                                                                                                                                                                                                                                                                           

         0.0000000       17.6766353        0.0233042       62.8218000       97.3466000      119.4400000      242.9881000
Warning: Decay condition. Distance from the Geoid (Km) =    -81.253

